STARLINK-30403          
1 57813U 23138F   26068.53040015 -.00002566  00000+0 -85999-4 0  9995
2 57813  43.0012 235.1058 0001540 272.1014  87.9661 15.26746502138611
HERMES-3                
1 63835U 25052BR  26068.93751242  .00020316  00000+0  69958-3 0  9995
2 63835  97.3987 324.6131 0007993 112.9583 247.2502 15.30039785 54863
